start=new Date('2022-07-15T00:00:00.000Z').valueOf();
sats=[{"OBJECT_TYPE":"PAYLOAD","CENTER_NAME":"EARTH","TLE_LINE1":"1 49148U 21082U   22195.82176148 -.00001163  00000-0 -93599-4 0  9997","EPHEMERIS_TYPE":"0","REF_FRAME":"TEME","OBJECT_ID":"2021-082U","EPOCH":"2022-07-14T19:43:20.191872","APOAPSIS":"579.147","ELEMENT_SET_NO":"999","MEAN_MOTION":"14.96728954","TLE_LINE2":"2 49148  69.9995  37.3275 0003068 260.6302  99.4509 14.96728954 47808","CLASSIFICATION_TYPE":"U","REV_AT_EPOCH":"4780","MEAN_MOTION_DOT":"-0.00001163","PERIAPSIS":"574.880","INCLINATION":"69.9995","OBJECT_NAME":"STARLINK-3048","SEMIMAJOR_AXIS":"6955.148","MEAN_MOTION_DDOT":"0.0000000000000","RCS_SIZE":"LARGE","COUNTRY_CODE":"US","GP_ID":"208107974","ARG_OF_PERICENTER":"260.6302","FILE":"3513768","NORAD_CAT_ID":"49148","SITE":"AFWTR","MEAN_ELEMENT_THEORY":"SGP4","PERIOD":"96.210","MEAN_ANOMALY":"99.4509","DECAY_DATE":null,"TIME_SYSTEM":"UTC","LAUNCH_DATE":"2021-09-14","BSTAR":"-0.00009359900000","RA_OF_ASC_NODE":"37.3275","ECCENTRICITY":"0.00030680"},{"REV_AT_EPOCH":"4738","ELEMENT_SET_NO":"999","MEAN_MOTION":"14.98325105","CLASSIFICATION_TYPE":"U","TLE_LINE2":"2 49149  70.0005  57.4025 0002926 264.4892  95.5934 14.98325105 47383","APOAPSIS":"574.107","EPOCH":"2022-07-14T21:36:35.699616","OBJECT_ID":"2021-082V","REF_FRAME":"TEME","OBJECT_TYPE":"PAYLOAD","TLE_LINE1":"1 49149U 21082V   22195.90041319 -.00001486  00000-0 -11677-3 0  9992","CENTER_NAME":"EARTH","EPHEMERIS_TYPE":"0","GP_ID":"208135796","COUNTRY_CODE":"US","RCS_SIZE":"LARGE","MEAN_MOTION_DDOT":"0.0000000000000","SEMIMAJOR_AXIS":"6950.208","PERIAPSIS":"570.039","INCLINATION":"70.0005","OBJECT_NAME":"STARLINK-3053","MEAN_MOTION_DOT":"-0.00001486","DECAY_DATE":null,"MEAN_ANOMALY":"95.5934","SITE":"AFWTR","NORAD_CAT_ID":"49149","MEAN_ELEMENT_THEORY":"SGP4","PERIOD":"96.107","ARG_OF_PERICENTER":"264.4892","FILE":"3513976","RA_OF_ASC_NODE":"57.4025","ECCENTRICITY":"0.00029260","BSTAR":"-0.00011677000000","LAUNCH_DATE":"2021-09-14","TIME_SYSTEM":"UTC"},{"REV_AT_EPOCH":"4738","CLASSIFICATION_TYPE":"U","TLE_LINE2":"2 49150  70.0007  57.4171 0002889 259.6868 100.3965 14.98317911 47381","MEAN_MOTION":"14.98317911","ELEMENT_SET_NO":"999","APOAPSIS":"574.103","EPOCH":"2022-07-14T21:29:44.116800","OBJECT_ID":"2021-082W","REF_FRAME":"TEME","TLE_LINE1":"1 49150U 21082W   22195.89564950 -.00000644  00000-0 -46185-4 0  9991","CENTER_NAME":"EARTH","EPHEMERIS_TYPE":"0","OBJECT_TYPE":"PAYLOAD","GP_ID":"208136047","COUNTRY_CODE":"US","RCS_SIZE":"LARGE","MEAN_MOTION_DDOT":"0.0000000000000","SEMIMAJOR_AXIS":"6950.230","INCLINATION":"70.0007","PERIAPSIS":"570.087","OBJECT_NAME":"STARLINK-3104","MEAN_MOTION_DOT":"-0.00000644","DECAY_DATE":null,"MEAN_ANOMALY":"100.3965","PERIOD":"96.108","NORAD_CAT_ID":"49150","SITE":"AFWTR","MEAN_ELEMENT_THEORY":"SGP4","FILE":"3513976","ARG_OF_PERICENTER":"259.6868","RA_OF_ASC_NODE":"57.4171","ECCENTRICITY":"0.00028890","BSTAR":"-0.00004618500000","LAUNCH_DATE":"2021-09-14","TIME_SYSTEM":"UTC"},{"LAUNCH_DATE":"2021-09-14","TIME_SYSTEM":"UTC","BSTAR":"-0.00012594000000","ECCENTRICITY":"0.00028840","RA_OF_ASC_NODE":"17.0824","ARG_OF_PERICENTER":"259.3463","FILE":"3513976","SITE":"AFWTR","NORAD_CAT_ID":"49151","MEAN_ELEMENT_THEORY":"SGP4","PERIOD":"96.211","MEAN_ANOMALY":"100.7371","DECAY_DATE":null,"OBJECT_NAME":"STARLINK-3102","PERIAPSIS":"575.074","INCLINATION":"69.9991","MEAN_MOTION_DOT":"-0.00001532","SEMIMAJOR_AXIS":"6955.214","MEAN_MOTION_DDOT":"0.0000000000000","GP_ID":"208136797","RCS_SIZE":"LARGE","COUNTRY_CODE":"US","REF_FRAME":"TEME","OBJECT_TYPE":"PAYLOAD","CENTER_NAME":"EARTH","TLE_LINE1":"1 49151U 21082X   22195.82305414 -.00001532  00000-0 -12594-3 0  9996","EPHEMERIS_TYPE":"0","EPOCH":"2022-07-14T19:45:11.877696","OBJECT_ID":"2021-082X","APOAPSIS":"579.085","REV_AT_EPOCH":"4837","MEAN_MOTION":"14.96707642","ELEMENT_SET_NO":"999","TLE_LINE2":"2 49151  69.9991  17.0824 0002884 259.3463 100.7371 14.96707642 48378","CLASSIFICATION_TYPE":"U"},{"SITE":"AFWTR","MEAN_ELEMENT_THEORY":"SGP4","NORAD_CAT_ID":"49152","PERIOD":"96.211","FILE":"3513782","ARG_OF_PERICENTER":"259.4073","DECAY_DATE":null,"MEAN_ANOMALY":"100.6762","BSTAR":"-0.00016278000000","LAUNCH_DATE":"2021-09-14","TIME_SYSTEM":"UTC","RA_OF_ASC_NODE":"17.1259","ECCENTRICITY":"0.00028710","EPOCH":"2022-07-14T19:09:08.957376","OBJECT_ID":"2021-082Y","REF_FRAME":"TEME","OBJECT_TYPE":"PAYLOAD","EPHEMERIS_TYPE":"0","TLE_LINE1":"1 49152U 21082Y   22195.79802034 -.00001954  00000-0 -16278-3 0  9994","CENTER_NAME":"EARTH","REV_AT_EPOCH":"4830","MEAN_MOTION":"14.96711552","ELEMENT_SET_NO":"999","CLASSIFICATION_TYPE":"U","TLE_LINE2":"2 49152  70.0000  17.1259 0002871 259.4073 100.6762 14.96711552 48301","APOAPSIS":"579.064","SEMIMAJOR_AXIS":"6955.202","PERIAPSIS":"575.070","INCLINATION":"70.0000","OBJECT_NAME":"STARLINK-3081","MEAN_MOTION_DOT":"-0.00001954","GP_ID":"208108161","COUNTRY_CODE":"US","RCS_SIZE":"LARGE","MEAN_MOTION_DDOT":"0.0000000000000"},{"ARG_OF_PERICENTER":"273.2245","FILE":"3513976","PERIOD":"96.210","SITE":"AFWTR","NORAD_CAT_ID":"49153","MEAN_ELEMENT_THEORY":"SGP4","MEAN_ANOMALY":"86.8527","DECAY_DATE":null,"LAUNCH_DATE":"2021-09-14","TIME_SYSTEM":"UTC","BSTAR":"-0.00000860110000","ECCENTRICITY":"0.00033800","RA_OF_ASC_NODE":"17.1120","REF_FRAME":"TEME","TLE_LINE1":"1 49153U 21082Z   22195.81327263 -.00000190  00000-0 -86011-5 0  9999","CENTER_NAME":"EARTH","EPHEMERIS_TYPE":"0","OBJECT_TYPE":"PAYLOAD","EPOCH":"2022-07-14T19:31:06.755232","OBJECT_ID":"2021-082Z","APOAPSIS":"579.386","REV_AT_EPOCH":"4838","TLE_LINE2":"2 49153  69.9991  17.1120 0003380 273.2245  86.8527 14.96721840 48389","CLASSIFICATION_TYPE":"U","MEAN_MOTION":"14.96721840","ELEMENT_SET_NO":"999","OBJECT_NAME":"STARLINK-3072","PERIAPSIS":"574.685","INCLINATION":"69.9991","MEAN_MOTION_DOT":"-0.00000190","SEMIMAJOR_AXIS":"6955.170","MEAN_MOTION_DDOT":"0.0000000000000","GP_ID":"208135296","COUNTRY_CODE":"US","RCS_SIZE":"LARGE"},{"APOAPSIS":"579.305","ELEMENT_SET_NO":"999","MEAN_MOTION":"14.96708025","CLASSIFICATION_TYPE":"U","TLE_LINE2":"2 49154  69.9982  37.3338 0003201 258.5489 101.5310 14.96708025 47758","REV_AT_EPOCH":"4775","OBJECT_TYPE":"PAYLOAD","CENTER_NAME":"EARTH","TLE_LINE1":"1 49154U 21082AA  22195.81694376 -.00000505  00000-0 -36108-4 0  9993","EPHEMERIS_TYPE":"0","REF_FRAME":"TEME","OBJECT_ID":"2021-082AA","EPOCH":"2022-07-14T19:36:23.940864","MEAN_MOTION_DDOT":"0.0000000000000","RCS_SIZE":"LARGE","COUNTRY_CODE":"US","GP_ID":"208135547","MEAN_MOTION_DOT":"-0.00000505","PERIAPSIS":"574.852","INCLINATION":"69.9982","OBJECT_NAME":"STARLINK-3068","SEMIMAJOR_AXIS":"6955.213","MEAN_ANOMALY":"101.5310","DECAY_DATE":null,"ARG_OF_PERICENTER":"258.5489","FILE":"3513976","NORAD_CAT_ID":"49154","SITE":"AFWTR","MEAN_ELEMENT_THEORY":"SGP4","PERIOD":"96.211","RA_OF_ASC_NODE":"37.3338","ECCENTRICITY":"0.00032010","TIME_SYSTEM":"UTC","LAUNCH_DATE":"2021-09-14","BSTAR":"-0.00003610800000"},{"FILE":"3513976","ARG_OF_PERICENTER":"264.5103","NORAD_CAT_ID":"49155","SITE":"AFWTR","MEAN_ELEMENT_THEORY":"SGP4","PERIOD":"96.202","MEAN_ANOMALY":"95.5737","DECAY_DATE":null,"TIME_SYSTEM":"UTC","LAUNCH_DATE":"2021-09-14","BSTAR":"0.00044846000000","ECCENTRICITY":"0.00027900","RA_OF_ASC_NODE":"17.0908","OBJECT_TYPE":"PAYLOAD","CENTER_NAME":"EARTH","TLE_LINE1":"1 49155U 21082AB  22195.80710220  .00005064  00000-0  44846-3 0  9990","EPHEMERIS_TYPE":"0","REF_FRAME":"TEME","OBJECT_ID":"2021-082AB","EPOCH":"2022-07-14T19:22:13.630080","APOAPSIS":"578.556","MEAN_MOTION":"14.96857403","ELEMENT_SET_NO":"999","CLASSIFICATION_TYPE":"U","TLE_LINE2":"2 49155  69.9991  17.0908 0002790 264.5103  95.5737 14.96857403 48255","REV_AT_EPOCH":"4825","MEAN_MOTION_DOT":"0.00005064","INCLINATION":"69.9991","PERIAPSIS":"574.675","OBJECT_NAME":"STARLINK-3060","SEMIMAJOR_AXIS":"6954.751","MEAN_MOTION_DDOT":"0.0000000000000","RCS_SIZE":"LARGE","COUNTRY_CODE":"US","GP_ID":"208136297"},{"MEAN_MOTION_DOT":"-0.00002288","INCLINATION":"70.0003","PERIAPSIS":"575.020","OBJECT_NAME":"STARLINK-3085","SEMIMAJOR_AXIS":"6955.197","MEAN_MOTION_DDOT":"0.0000000000000","COUNTRY_CODE":"US","RCS_SIZE":"LARGE","GP_ID":"208137044","OBJECT_TYPE":"PAYLOAD","EPHEMERIS_TYPE":"0","TLE_LINE1":"1 49156U 21082AC  22195.78830255 -.00002288  00000-0 -19200-3 0  9992","CENTER_NAME":"EARTH","REF_FRAME":"TEME","OBJECT_ID":"2021-082AC","EPOCH":"2022-07-14T18:55:09.340320","APOAPSIS":"579.105","MEAN_MOTION":"14.96713182","ELEMENT_SET_NO":"999","CLASSIFICATION_TYPE":"U","TLE_LINE2":"2 49156  70.0003  17.1519 0002937 268.9251  91.1571 14.96713182 48250","REV_AT_EPOCH":"4825","TIME_SYSTEM":"UTC","LAUNCH_DATE":"2021-09-14","BSTAR":"-0.00019200000000","ECCENTRICITY":"0.00029370","RA_OF_ASC_NODE":"17.1519","ARG_OF_PERICENTER":"268.9251","FILE":"3513976","NORAD_CAT_ID":"49156","SITE":"AFWTR","MEAN_ELEMENT_THEORY":"SGP4","PERIOD":"96.211","MEAN_ANOMALY":"91.1571","DECAY_DATE":null},{"RA_OF_ASC_NODE":"37.3461","ECCENTRICITY":"0.00033110","BSTAR":"-0.00012175000000","TIME_SYSTEM":"UTC","LAUNCH_DATE":"2021-09-14","DECAY_DATE":null,"MEAN_ANOMALY":"108.0582","SITE":"AFWTR","MEAN_ELEMENT_THEORY":"SGP4","NORAD_CAT_ID":"49157","PERIOD":"96.211","ARG_OF_PERICENTER":"252.0215","FILE":"3513976","COUNTRY_CODE":"US","RCS_SIZE":"LARGE","GP_ID":"208135797","MEAN_MOTION_DDOT":"0.0000000000000","SEMIMAJOR_AXIS":"6955.194","MEAN_MOTION_DOT":"-0.00001485","OBJECT_NAME":"STARLINK-3051","PERIAPSIS":"574.756","INCLINATION":"69.9978","ELEMENT_SET_NO":"999","MEAN_MOTION":"14.96714206","TLE_LINE2":"2 49157  69.9978  37.3461 0003311 252.0215 108.0582 14.96714206 47774","CLASSIFICATION_TYPE":"U","REV_AT_EPOCH":"4777","APOAPSIS":"579.362","OBJECT_ID":"2021-082AD","EPOCH":"2022-07-14T19:29:22.647552","OBJECT_TYPE":"PAYLOAD","EPHEMERIS_TYPE":"0","TLE_LINE1":"1 49157U 21082AD  22195.81206768 -.00001485  00000-0 -12175-3 0  9995","CENTER_NAME":"EARTH","REF_FRAME":"TEME"}];
